[{"OBJECT_NAME":"IRIDIUM 163","OBJECT_ID":"2018-061G","EPOCH":"2026-03-09T13:59:42.401760","MEAN_MOTION":14.34217733,"ECCENTRICITY":0.0002172,"INCLINATION":86.3916,"RA_OF_ASC_NODE":98.3882,"ARG_OF_PERICENTER":91.0803,"MEAN_ANOMALY":269.0641,"EPHEMERIS_TYPE":0,"CLASSIFICATION_TYPE":"U","NORAD_CAT_ID":43575,"ELEMENT_SET_NO":999,"REV_AT_EPOCH":39910,"BSTAR":2.0406e-5,"MEAN_MOTION_DOT":7.7e-7,"MEAN_MOTION_DDOT":0},{"OBJECT_NAME":"COSMOS 1867 COOLANT","OBJECT_ID":"1987-060Z","EPOCH":"2026-03-09T23:09:47.178432","MEAN_MOTION":14.34540029,"ECCENTRICITY":0.00138276,"INCLINATION":65.0069,"RA_OF_ASC_NODE":284.8649,"ARG_OF_PERICENTER":278.0727,"MEAN_ANOMALY":81.879,"EPHEMERIS_TYPE":0,"CLASSIFICATION_TYPE":"U","NORAD_CAT_ID":39662,"ELEMENT_SET_NO":999,"REV_AT_EPOCH":62126,"BSTAR":0.00020119043,"MEAN_MOTION_DOT":4.69e-6,"MEAN_MOTION_DDOT":0}]
